{
  "type": "FeatureCollection",
  "features": [
    {
      "type": "Feature",
      "properties": {
        "norad_id": 37238,
        "name": "INTELSAT 17 (IS-17)",
        "group": "intelsat",
        "lat": -3.390204867998281e-05,
        "lon": 129.50102462678439,
        "alt_km": 35795.69880857566,
        "timestamp": "2025-12-14T22:38:40.427086+00:00",
        "meta_object_name": "INTELSAT 17 (IS-17)",
        "meta_object_id": "2010-065B",
        "meta_epoch": "2025-12-14T05:10:22.348416",
        "meta_mean_motion": 1.00271798,
        "meta_eccentricity": 0.00026243,
        "meta_inclination": 0.0126,
        "meta_ra_of_asc_node": 104.4782,
        "meta_arg_of_pericenter": 175.6392,
        "meta_mean_anomaly": 306.6155,
        "meta_ephemeris_type": 0,
        "meta_classification_type": "U",
        "meta_norad_cat_id": 37238,
        "meta_element_set_no": 999,
        "meta_rev_at_epoch": 5139,
        "meta_bstar": 0,
        "meta_mean_motion_dot": 1.6e-07,
        "meta_mean_motion_ddot": 0,
        "tle_line1": "1 37238U 10065B   25348.21553644  .00000016  00000+0  00000+0 0  9992",
        "tle_line2": "2 37238   0.0126 104.4782 0002624 175.6392 306.6155  1.00271798 51396"
      },
      "geometry": {
        "type": "Point",
        "coordinates": [
          129.50102462678439,
          -3.390204867998281e-05
        ]
      }
    },
    {
      "type": "Feature",
      "properties": {
        "norad_id": 37392,
        "name": "INTELSAT 28 (IS-28)",
        "group": "intelsat",
        "lat": -1.046205881880106,
        "lon": 31.881119667809315,
        "alt_km": 35794.77037383025,
        "timestamp": "2025-12-14T22:38:40.427097+00:00",
        "meta_object_name": "INTELSAT 28 (IS-28)",
        "meta_object_id": "2011-016A",
        "meta_epoch": "2025-12-14T06:25:07.686912",
        "meta_mean_motion": 1.00272925,
        "meta_eccentricity": 0.00037124,
        "meta_inclination": 1.3286,
        "meta_ra_of_asc_node": 85.0389,
        "meta_arg_of_pericenter": 182.7746,
        "meta_mean_anomaly": 239.978,
        "meta_ephemeris_type": 0,
        "meta_classification_type": "U",
        "meta_norad_cat_id": 37392,
        "meta_element_set_no": 999,
        "meta_rev_at_epoch": 5143,
        "meta_bstar": 0,
        "meta_mean_motion_dot": -2.07e-06,
        "meta_mean_motion_ddot": 0,
        "tle_line1": "1 37392U 11016A   25348.26745008 -.00000207  00000+0  00000+0 0  9995",
        "tle_line2": "2 37392   1.3286  85.0389 0003712 182.7746 239.9780  1.00272925 51436"
      },
      "geometry": {
        "type": "Point",
        "coordinates": [
          31.881119667809315,
          -1.046205881880106
        ]
      }
    },
    {
      "type": "Feature",
      "properties": {
        "norad_id": 37834,
        "name": "INTELSAT 18 (IS-18)",
        "group": "intelsat",
        "lat": -0.03937426075316472,
        "lon": -116.50102812358605,
        "alt_km": 35779.2896980323,
        "timestamp": "2025-12-14T22:38:40.427110+00:00",
        "meta_object_name": "INTELSAT 18 (IS-18)",
        "meta_object_id": "2011-056A",
        "meta_epoch": "2025-12-14T05:42:49.239360",
        "meta_mean_motion": 1.00272412,
        "meta_eccentricity": 0.00018109,
        "meta_inclination": 0.0185,
        "meta_ra_of_asc_node": 326.9071,
        "meta_arg_of_pericenter": 307.6852,
        "meta_mean_anomaly": 74.2671,
        "meta_ephemeris_type": 0,
        "meta_classification_type": "U",
        "meta_norad_cat_id": 37834,
        "meta_element_set_no": 999,
        "meta_rev_at_epoch": 5195,
        "meta_bstar": 0,
        "meta_mean_motion_dot": 7.1e-07,
        "meta_mean_motion_ddot": 0,
        "tle_line1": "1 37834U 11056A   25348.23806990  .00000071  00000+0  00000+0 0  9993",
        "tle_line2": "2 37834   0.0185 326.9071 0001810 307.6852  74.2671  1.00272412 51956"
      },
      "geometry": {
        "type": "Point",
        "coordinates": [
          -116.50102812358605,
          -0.03937426075316472
        ]
      }
    },
    {
      "type": "Feature",
      "properties": {
        "norad_id": 38098,
        "name": "INTELSAT 22 (IS-22)",
        "group": "intelsat",
        "lat": 0.03822632049389937,
        "lon": 135.59702826876165,
        "alt_km": 35792.7008066775,
        "timestamp": "2025-12-14T22:38:40.427122+00:00",
        "meta_object_name": "INTELSAT 22 (IS-22)",
        "meta_object_id": "2012-011A",
        "meta_epoch": "2025-12-14T03:29:02.053824",
        "meta_mean_motion": 1.00270483,
        "meta_eccentricity": 0.00017698,
        "meta_inclination": 0.0332,
        "meta_ra_of_asc_node": 44.514,
        "meta_arg_of_pericenter": 238.2269,
        "meta_mean_anomaly": 284.6841,
        "meta_ephemeris_type": 0,
        "meta_classification_type": "U",
        "meta_norad_cat_id": 38098,
        "meta_element_set_no": 999,
        "meta_rev_at_epoch": 533,
        "meta_bstar": 0,
        "meta_mean_motion_dot": 0,
        "meta_mean_motion_ddot": 0,
        "tle_line1": "1 38098U 12011A   25348.14516266  .00000000  00000+0  00000+0 0  9994",
        "tle_line2": "2 38098   0.0332  44.5140 0001769 238.2269 284.6841  1.00270483  5330"
      },
      "geometry": {
        "type": "Point",
        "coordinates": [
          135.59702826876165,
          0.03822632049389937
        ]
      }
    },
    {
      "type": "Feature",
      "properties": {
        "norad_id": 38356,
        "name": "INTELSAT 19 (IS-19)",
        "group": "intelsat",
        "lat": -0.03215975602838052,
        "lon": -130.4906703536543,
        "alt_km": 35775.56430973449,
        "timestamp": "2025-12-14T22:38:40.427134+00:00",
        "meta_object_name": "INTELSAT 19 (IS-19)",
        "meta_object_id": "2012-030A",
        "meta_epoch": "2025-12-14T05:38:49.621920",
        "meta_mean_motion": 1.00273866,
        "meta_eccentricity": 0.00031297,
        "meta_inclination": 0.0118,
        "meta_ra_of_asc_node": 322.9566,
        "meta_arg_of_pericenter": 308.1159,
        "meta_mean_anomaly": 62.8057,
        "meta_ephemeris_type": 0,
        "meta_classification_type": "U",
        "meta_norad_cat_id": 38356,
        "meta_element_set_no": 999,
        "meta_rev_at_epoch": 4859,
        "meta_bstar": 0,
        "meta_mean_motion_dot": -3.8e-07,
        "meta_mean_motion_ddot": 0,
        "tle_line1": "1 38356U 12030A   25348.23529655 -.00000038  00000+0  00000+0 0  9990",
        "tle_line2": "2 38356   0.0118 322.9566 0003129 308.1159  62.8057  1.00273866 48599"
      },
      "geometry": {
        "type": "Point",
        "coordinates": [
          -130.4906703536543,
          -0.03215975602838052
        ]
      }
    },
    {
      "type": "Feature",
      "properties": {
        "norad_id": 38740,
        "name": "INTELSAT 20 (IS-20)",
        "group": "intelsat",
        "lat": 0.004524777451922893,
        "lon": 131.98010006054497,
        "alt_km": 35778.75235661525,
        "timestamp": "2025-12-14T22:38:40.427146+00:00",
        "meta_object_name": "INTELSAT 20 (IS-20)",
        "meta_object_id": "2012-043A",
        "meta_epoch": "2025-12-14T05:10:52.299840",
        "meta_mean_motion": 1.0026944,
        "meta_eccentricity": 0.00030205,
        "meta_inclination": 0.0053,
        "meta_ra_of_asc_node": 63.1553,
        "meta_arg_of_pericenter": 119.7926,
        "meta_mean_anomaly": 46.4074,
        "meta_ephemeris_type": 0,
        "meta_classification_type": "U",
        "meta_norad_cat_id": 38740,
        "meta_element_set_no": 999,
        "meta_rev_at_epoch": 4889,
        "meta_bstar": 0,
        "meta_mean_motion_dot": -6e-08,
        "meta_mean_motion_ddot": 0,
        "tle_line1": "1 38740U 12043A   25348.21588310 -.00000006  00000+0  00000+0 0  9997",
        "tle_line2": "2 38740   0.0053  63.1553 0003020 119.7926  46.4074  1.00269440 48895"
      },
      "geometry": {
        "type": "Point",
        "coordinates": [
          131.98010006054497,
          0.004524777451922893
        ]
      }
    },
    {
      "type": "Feature",
      "properties": {
        "norad_id": 38749,
        "name": "INTELSAT 21 (IS-21)",
        "group": "intelsat",
        "lat": -0.01335311971346084,
        "lon": 5.537177176554311,
        "alt_km": 35787.86961656511,
        "timestamp": "2025-12-14T22:38:40.427158+00:00",
        "meta_object_name": "INTELSAT 21 (IS-21)",
        "meta_object_id": "2012-045A",
        "meta_epoch": "2025-12-14T06:17:38.404320",
        "meta_mean_motion": 1.00271914,
        "meta_eccentricity": 0.00017205,
        "meta_inclination": 0.0314,
        "meta_ra_of_asc_node": 75.9648,
        "meta_arg_of_pericenter": 185.7372,
        "meta_mean_anomaly": 217.8961,
        "meta_ephemeris_type": 0,
        "meta_classification_type": "U",
        "meta_norad_cat_id": 38749,
        "meta_element_set_no": 999,
        "meta_rev_at_epoch": 4867,
        "meta_bstar": 0,
        "meta_mean_motion_dot": -2.67e-06,
        "meta_mean_motion_ddot": 0,
        "tle_line1": "1 38749U 12045A   25348.26225005 -.00000267  00000+0  00000+0 0  9991",
        "tle_line2": "2 38749   0.0314  75.9648 0001720 185.7372 217.8961  1.00271914 48677"
      },
      "geometry": {
        "type": "Point",
        "coordinates": [
          5.537177176554311,
          -0.01335311971346084
        ]
      }
    }
  ]
}